NORAD_CAT_ID,OBJECT_NAME,OBJECT_TYPE,EPOCH,MEAN_MOTION,ECCENTRICITY,INCLINATION,RA_OF_ASC_NODE,ARG_OF_PERICENTER,MEAN_ANOMALY,BSTAR,MEAN_MOTION_DOT,MEAN_MOTION_DDOT,TLE_LINE0,TLE_LINE1,TLE_LINE2,SEMIMAJOR_AXIS,PERIOD,APOGEE,PERIGEE,DECAYED
54103.0,STARLINK-5200,PAYLOAD,2024-05-31 21:26:56,15.08841023,0.0001234,53.2173,337.4875,84.3569,275.7564,6.3941e-05,7.3e-06,0.0,0 STARLINK-5200,1 54103U 22136BE  24152.89370460  .00000730  00000-0  63941-4 0  9995,2 54103  53.2173 337.4875 0001234  84.3569 275.7564 15.08841023 89621,6917.877,95.437,540.596,538.889,0.0
54103.0,STARLINK-5200,PAYLOAD,2024-06-01 05:23:50,15.0885276,0.0001616,53.2189,335.999,76.7529,283.3643,0.00013936,1.931e-05,0.0,0 STARLINK-5200,1 54103U 22136BE  24153.22489505  .00001931  00000-0  13936-3 0  9996,2 54103  53.2189 335.9990 0001616  76.7529 283.3643 15.08852760 90146,6917.841,95.437,540.824,538.588,0.0
54103.0,STARLINK-5200,PAYLOAD,2024-06-01 19:42:20,15.08841199,0.0001344,53.218,333.3252,88.0923,272.0223,1.7282e-05,-1.3e-07,0.0,0 STARLINK-5200,1 54103U 22136BE  24153.82106599 -.00000013  00000-0  17282-4 0  9991,2 54103  53.2180 333.3252 0001344  88.0923 272.0223 15.08841199 90235,6917.877,95.437,540.671,538.812,0.0
54103.0,STARLINK-5200,PAYLOAD,2024-06-02 05:14:38,15.08847743,0.0001413,53.2183,331.5417,87.4659,272.6495,6.1193e-05,6.86e-06,0.0,0 STARLINK-5200,1 54103U 22136BE  24154.21849990  .00000686  00000-0  61193-4 0  9999,2 54103  53.2183 331.5417 0001413  87.4659 272.6495 15.08847743 90291,6917.857,95.437,540.699,538.744,0.0
54103.0,STARLINK-5200,PAYLOAD,2024-06-03 05:05:26,15.08835058,0.0001365,53.218,327.0813,85.6123,274.5025,-3.4115e-05,-8.31e-06,0.0,0 STARLINK-5200,1 54103U 22136BE  24155.21211300 -.00000831  00000-0 -34115-4 0  9996,2 54103  53.2180 327.0813 0001365  85.6123 274.5025 15.08835058 90443,6917.895,95.438,540.705,538.816,0.0
54103.0,STARLINK-5200,PAYLOAD,2024-06-03 11:26:58,15.08833192,9.48e-05,53.218,325.8871,107.8601,252.2494,0.00011092,1.478e-05,0.0,0 STARLINK-5200,1 54103U 22136BE  24155.47706821  .00001478  00000-0  11092-3 0  9995,2 54103  53.2180 325.8871 0000948 107.8601 252.2494 15.08833192 90010,6917.901,95.438,540.422,539.11,0.0
54103.0,STARLINK-5200,PAYLOAD,2024-06-03 17:48:30,15.08847278,0.0001365,53.2179,324.7017,88.512,271.6029,0.00021967,3.211e-05,0.0,0 STARLINK-5200,1 54103U 22136BE  24155.74201918  .00003211  00000-0  21967-3 0  9991,2 54103  53.2179 324.7017 0001365  88.5120 271.6029 15.08847278 90528,6917.858,95.437,540.667,538.779,0.0
54103.0,STARLINK-5200,PAYLOAD,2024-06-03 20:59:16,15.08846617,0.0001309,53.2174,324.1044,101.443,258.6709,0.00023757,3.496e-05,0.0,0 STARLINK-5200,1 54103U 22136BE  24155.87449818  .00003496  00000-0  23757-3 0  9992,2 54103  53.2174 324.1044 0001309 101.4430 258.6709 15.08846617 90070,6917.86,95.437,540.631,538.82,0.0
54103.0,STARLINK-5200,PAYLOAD,2024-06-04 20:50:04,15.08841973,0.0001446,53.2145,319.6453,93.2378,266.8779,-9.4221e-06,-4.38e-06,0.0,0 STARLINK-5200,1 54103U 22136BE  24156.86810994 -.00000438  00000-0 -94221-5 0  9990,2 54103  53.2145 319.6453 0001446  93.2378 266.8779 15.08841973 90698,6917.874,95.437,540.74,538.739,0.0
54103.0,STARLINK-5200,PAYLOAD,2024-06-05 11:08:32,15.08840616,0.0001412,53.2139,316.9687,92.8453,267.2701,-1.7696e-05,-5.7e-06,0.0,0 STARLINK-5200,1 54103U 22136BE  24157.46426964 -.00000570  00000-0 -17696-4 0  9994,2 54103  53.2139 316.9687 0001412  92.8453 267.2701 15.08840616 90314,6917.879,95.438,540.72,538.767,0.0
54103.0,STARLINK-5200,PAYLOAD,2024-06-05 17:30:05,15.08836909,0.0001492,53.2153,315.7787,95.9541,264.1621,-4.4175e-05,-9.91e-06,0.0,0 STARLINK-5200,1 54103U 22136BE  24157.72923313 -.00000991  00000-0 -44175-4 0  9992,2 54103  53.2153 315.7787 0001492  95.9541 264.1621 15.08836909 90359,6917.89,95.438,540.787,538.723,0.0
54103.0,STARLINK-5200,PAYLOAD,2024-06-06 03:02:24,15.08840952,0.0001926,53.2225,313.9963,97.8779,262.2432,6.8416e-05,8.01e-06,0.0,0 STARLINK-5200,1 54103U 22136BE  24158.12666820  .00000801  00000-0  68416-4 0  9996,2 54103  53.2225 313.9963 0001926  97.8779 262.2432 15.08840952 90881,6917.877,95.437,541.075,538.41,0.0
54103.0,STARLINK-5200,PAYLOAD,2024-06-06 17:20:53,15.08827077,9.15e-05,53.2129,311.3173,66.352,293.7568,4.4194e-06,-2.17e-06,0.0,0 STARLINK-5200,1 54103U 22136BE  24158.72283869 -.00000217  00000-0  44194-5 0  9990,2 54103  53.2129 311.3173 0000915  66.3520 293.7568 15.08827077 90973,6917.92,95.438,540.418,539.152,0.0
54103.0,STARLINK-5200,PAYLOAD,2024-06-07 09:14:44,15.08833212,0.0001325,53.218,308.3459,85.7357,274.3787,8.3091e-05,1.035e-05,0.0,0 STARLINK-5200,1 54103U 22136BE  24159.38523620  .00001035  00000-0  83091-4 0  9991,2 54103  53.2180 308.3459 0001325  85.7357 274.3787 15.08833212 91070,6917.901,95.438,540.683,538.85,0.0
54103.0,STARLINK-5200,PAYLOAD,2024-06-08 02:43:58,15.08852131,0.0001601,53.2183,305.0753,95.6099,264.5076,-0.00012339,-2.252e-05,0.0,0 STARLINK-5200,1 54103U 22136BE  24160.11387104 -.00002252  00000-0 -12339-3 0  9999,2 54103  53.2183 305.0753 0001601  95.6099 264.5076 15.08852131 91189,6917.843,95.437,540.816,538.601,0.0
54103.0,STARLINK-5200,PAYLOAD,2024-06-08 09:05:32,15.0882569,0.0002178,53.219,303.8867,86.873,273.2511,0.00020965,3.049e-05,0.0,0 STARLINK-5200,1 54103U 22136BE  24160.37884334  .00003049  00000-0  20965-3 0  9991,2 54103  53.2190 303.8867 0002178  86.8730 273.2511 15.08825690 90756,6917.924,95.438,541.296,538.282,0.0
54103.0,STARLINK-5200,PAYLOAD,2024-06-09 02:34:45,15.0885448,0.0001763,53.2082,300.6094,67.6026,292.5152,1.3384e-05,-7.5e-07,0.0,0 STARLINK-5200,1 54103U 22136BE  24161.10746699 -.00000075  00000-0  13384-4 0  9999,2 54103  53.2082 300.6094 0001763  67.6026 292.5152 15.08854480 91336,6917.836,95.437,540.921,538.482,0.0
54103.0,STARLINK-5200,PAYLOAD,2024-06-09 15:17:51,15.08830204,0.0001391,53.2154,298.2334,80.5427,279.5722,-2.5076e-05,-6.87e-06,0.0,0 STARLINK-5200,1 54103U 22136BE  24161.63740258 -.00000687  00000-0 -25076-4 0  9993,2 54103  53.2154 298.2334 0001391  80.5427 279.5722 15.08830204 90943,6917.91,95.438,540.738,538.813,0.0
54103.0,STARLINK-5200,PAYLOAD,2024-06-09 21:39:24,15.08833974,0.0001827,53.2131,297.0449,79.9493,280.1706,5.0064e-06,-2.08e-06,0.0,0 STARLINK-5200,1 54103U 22136BE  24161.90236118 -.00000208  00000-0  50064-5 0  9992,2 54103  53.2131 297.0449 0001827  79.9493 280.1706 15.08833974 90982,6917.899,95.438,541.028,538.5,0.0
54103.0,STARLINK-5200,PAYLOAD,2024-06-10 02:25:32,15.0885382,0.000169,53.2147,296.1526,75.3717,284.7463,0.00010224,1.34e-05,0.0,0 STARLINK-5200,1 54103U 22136BE  24162.10106737  .00001340  00000-0  10224-3 0  9997,2 54103  53.2147 296.1526 0001690  75.3717 284.7463 15.08853820 91480,6917.838,95.437,540.872,538.534,0.0
54103.0,STARLINK-5200,PAYLOAD,2024-06-10 13:33:15,15.08836349,0.0001811,53.2133,294.0703,78.9572,281.1623,-3.4117e-05,-8.31e-06,0.0,0 STARLINK-5200,1 54103U 22136BE  24162.56476188 -.00000831  00000-0 -34117-4 0  9991,2 54103  53.2133 294.0703 0001811  78.9572 281.1623 15.08836349 91556,6917.892,95.438,541.009,538.504,0.0
54103.0,STARLINK-5200,PAYLOAD,2024-06-10 15:08:38,15.08838959,0.0002142,53.2122,293.7722,81.1112,279.0122,-1.8965e-05,-5.9e-06,0.0,0 STARLINK-5200,1 54103U 22136BE  24162.63100098 -.00000590  00000-0 -18965-4 0  9998,2 54103  53.2122 293.7722 0002142  81.1112 279.0122 15.08838959 91093,6917.884,95.438,541.23,538.267,0.0
54103.0,STARLINK-5200,PAYLOAD,2024-06-10 19:54:46,15.08855297,0.0001024,53.2183,292.8807,53.4107,306.6979,-2.2106e-05,-6.4e-06,0.0,0 STARLINK-5200,1 54103U 22136BE  24162.82970681 -.00000640  00000-0 -22106-4 0  9990,2 54103  53.2183 292.8807 0001024  53.4107 306.6979 15.08855297 91594,6917.834,95.437,540.407,538.99,0.0
54103.0,STARLINK-5200,PAYLOAD,2024-06-11 13:24:02,15.08835148,0.0001709,53.2169,289.6097,83.9062,276.2125,0.0001038,1.364e-05,0.0,0 STARLINK-5200,1 54103U 22136BE  24163.55835692  .00001364  00000-0  10380-3 0  9995,2 54103  53.2169 289.6097 0001709  83.9062 276.2125 15.08835148 91230,6917.895,95.438,540.942,538.578,0.0
54103.0,STARLINK-5200,PAYLOAD,2024-06-11 14:59:24,15.08845497,0.0001117,53.218,289.3139,68.3294,291.7817,-2.2772e-05,-6.5e-06,0.0,0 STARLINK-5200,1 54103U 22136BE  24163.62459417 -.00000650  00000-0 -22772-4 0  9998,2 54103  53.2180 289.3139 0001117  68.3294 291.7817 15.08845497 91715,6917.864,95.437,540.501,538.956,0.0
54103.0,STARLINK-5200,PAYLOAD,2024-06-12 13:14:49,15.08829786,0.0001443,53.2174,285.1481,92.2361,267.8797,3.1842e-05,2.19e-06,0.0,0 STARLINK-5200,1 54103U 22136BE  24164.55196200  .00000219  00000-0  31842-4 0  9996,2 54103  53.2174 285.1481 0001443  92.2361 267.8797 15.08829786 91854,6917.912,95.438,540.775,538.778,0.0
54103.0,STARLINK-5200,PAYLOAD,2024-06-12 14:50:12,15.08832661,0.0001383,53.2179,284.8521,84.7199,275.3951,-5.0222e-05,-1.087e-05,0.0,0 STARLINK-5200,1 54103U 22136BE  24164.61820365 -.00001087  00000-0 -50222-4 0  9998,2 54103  53.2179 284.8521 0001383  84.7199 275.3951 15.08832661 91399,6917.903,95.438,540.725,538.811,0.0
54103.0,STARLINK-5200,PAYLOAD,2024-06-13 14:40:58,15.08889281,0.0001051,53.2173,280.3959,79.2733,280.8378,-0.00068194,-0.00011139,0.0,0 STARLINK-5200,1 54103U 22136BE  24165.61178921 -.00011139  00000-0 -68194-3 0  9998,2 54103  53.2173 280.3959 0001051  79.2733 280.8378 15.08889281 91545,6917.73,95.434,540.322,538.868,0.0
54103.0,STARLINK-5200,PAYLOAD,2024-06-14 14:31:47,15.08828124,0.0001381,53.2188,275.939,92.5114,267.6036,9.6161e-05,1.242e-05,0.0,0 STARLINK-5200,1 54103U 22136BE  24166.60540718  .00001242  00000-0  96161-4 0  9993,2 54103  53.2188 275.9390 0001381  92.5114 267.6036 15.08828124 91696,6917.917,95.438,540.737,538.826,0.0
54103.0,STARLINK-5200,PAYLOAD,2024-06-14 17:42:32,15.08835488,0.0001206,53.2176,275.3395,89.6017,270.5114,0.00011227,1.499e-05,0.0,0 STARLINK-5200,1 54103U 22136BE  24166.73788120  .00001499  00000-0  11227-3 0  9991,2 54103  53.2176 275.3395 0001206  89.6017 270.5114 15.08835488 91711,6917.894,95.438,540.593,538.925,0.0
